{"type": "FeatureCollection", "features": [ {"type": "Feature", "properties": {"norad_id": 17070, "name": "POLAR BEAR", "group": "nnss", "lat": 9.529527466734613, "lon": 3.652273936347629, "alt_km": 965.2067485141251, "timestamp": "2025-12-14T03:55:53.056129+00:00", "meta": {"OBJECT_NAME": "POLAR BEAR", "OBJECT_ID": "1986-088A", "EPOCH": "2025-12-13T06:59:34.795680", "MEAN_MOTION": 13.75250891, "ECCENTRICITY": 0.00410042, "INCLINATION": 89.6173, "RA_OF_ASC_NODE": 183.7517, "ARG_OF_PERICENTER": 117.6351, "MEAN_ANOMALY": 55.6343, "EPHEMERIS_TYPE": 0, "CLASSIFICATION_TYPE": "U", "NORAD_CAT_ID": 17070, "ELEMENT_SET_NO": 999, "REV_AT_EPOCH": 95986, "BSTAR": 0.00014788839, "MEAN_MOTION_DOT": 1.54e-06, "MEAN_MOTION_DDOT": 0}, "tle": {"line1": "1 17070U 86088A   25347.29137495  .00000154  00000+0  14789-3 0  9997", "line2": "2 17070  89.6173 183.7517 0041004 117.6351  55.6343 13.75250891959860"}}, "geometry": {"type": "Point", "coordinates": [3.652273936347629, 9.529527466734613]}}, {"type": "Feature", "properties": {"norad_id": 18361, "name": "OSCAR 27", "group": "nnss", "lat": -86.97230521722405, "lon": 86.42478464237828, "alt_km": 1052.0639310150382, "timestamp": "2025-12-14T03:55:53.056140+00:00", "meta": {"OBJECT_NAME": "OSCAR 27", "OBJECT_ID": "1987-080A", "EPOCH": "2025-12-13T06:56:14.468640", "MEAN_MOTION": 13.44906896, "ECCENTRICITY": 0.01029546, "INCLINATION": 90.3743, "RA_OF_ASC_NODE": 79.293, "ARG_OF_PERICENTER": 222.2209, "MEAN_ANOMALY": 137.0978, "EPHEMERIS_TYPE": 0, "CLASSIFICATION_TYPE": "U", "NORAD_CAT_ID": 18361, "ELEMENT_SET_NO": 999, "REV_AT_EPOCH": 87564, "BSTAR": 0.00022675514, "MEAN_MOTION_DOT": 1.45e-06, "MEAN_MOTION_DDOT": 0}, "tle": {"line1": "1 18361U 87080A   25347.28905635  .00000145  00000+0  22676-3 0  9996", "line2": "2 18361  90.3743  79.2930 0102954 222.2209 137.0978 13.44906896875642"}}, "geometry": {"type": "Point", "coordinates": [86.42478464237828, -86.97230521722405]}}, {"type": "Feature", "properties": {"norad_id": 18362, "name": "OSCAR 29", "group": "nnss", "lat": -77.35003416946113, "lon": 81.4580026199754, "alt_km": 1040.0264627004044, "timestamp": "2025-12-14T03:55:53.056150+00:00", "meta": {"OBJECT_NAME": "OSCAR 29", "OBJECT_ID": "1987-080B", "EPOCH": "2025-12-13T07:10:41.802816", "MEAN_MOTION": 13.44448531, "ECCENTRICITY": 0.01039547, "INCLINATION": 90.3753, "RA_OF_ASC_NODE": 79.7522, "ARG_OF_PERICENTER": 245.5417, "MEAN_ANOMALY": 173.6244, "EPHEMERIS_TYPE": 0, "CLASSIFICATION_TYPE": "U", "NORAD_CAT_ID": 18362, "ELEMENT_SET_NO": 999, "REV_AT_EPOCH": 87517, "BSTAR": 0.00019152638, "MEAN_MOTION_DOT": 1.22e-06, "MEAN_MOTION_DDOT": 0}, "tle": {"line1": "1 18362U 87080B   25347.29909494  .00000122  00000+0  19153-3 0  9996", "line2": "2 18362  90.3753  79.7522 0103954 245.5417 173.6244 13.44448531875173"}}, "geometry": {"type": "Point", "coordinates": [81.4580026199754, -77.35003416946113]}}, {"type": "Feature", "properties": {"norad_id": 19070, "name": "OSCAR 23", "group": "nnss", "lat": -27.26039430742927, "lon": 16.602644927181576, "alt_km": 1291.805680968664, "timestamp": "2025-12-14T03:55:53.056160+00:00", "meta": {"OBJECT_NAME": "OSCAR 23", "OBJECT_ID": "1988-033A", "EPOCH": "2025-12-13T08:13:55.937856", "MEAN_MOTION": 13.27787225, "ECCENTRICITY": 0.01895805, "INCLINATION": 90.3213, "RA_OF_ASC_NODE": 16.4114, "ARG_OF_PERICENTER": 178.2447, "MEAN_ANOMALY": 192.5668, "EPHEMERIS_TYPE": 0, "CLASSIFICATION_TYPE": "U", "NORAD_CAT_ID": 19070, "ELEMENT_SET_NO": 999, "REV_AT_EPOCH": 82261, "BSTAR": 0.00017608612, "MEAN_MOTION_DOT": 9.6e-07, "MEAN_MOTION_DDOT": 0}, "tle": {"line1": "1 19070U 88033A   25347.34300854  .00000096  00000+0  17609-3 0  9997", "line2": "2 19070  90.3213  16.4114 0189580 178.2447 192.5668 13.27787225822618"}}, "geometry": {"type": "Point", "coordinates": [16.602644927181576, -27.26039430742927]}}, {"type": "Feature", "properties": {"norad_id": 19071, "name": "OSCAR 32", "group": "nnss", "lat": 80.99325635258792, "lon": 14.53719989003787, "alt_km": 1124.351323928403, "timestamp": "2025-12-14T03:55:53.056171+00:00", "meta": {"OBJECT_NAME": "OSCAR 32", "OBJECT_ID": "1988-033B", "EPOCH": "2025-12-13T07:41:12.269760", "MEAN_MOTION": 13.27954073, "ECCENTRICITY": 0.01884189, "INCLINATION": 90.3218, "RA_OF_ASC_NODE": 16.5427, "ARG_OF_PERICENTER": 165.1766, "MEAN_ANOMALY": 207.7212, "EPHEMERIS_TYPE": 0, "CLASSIFICATION_TYPE": "U", "NORAD_CAT_ID": 19071, "ELEMENT_SET_NO": 999, "REV_AT_EPOCH": 82273, "BSTAR": 0.00019355788, "MEAN_MOTION_DOT": 1.05e-06, "MEAN_MOTION_DDOT": 0}, "tle": {"line1": "1 19071U 88033B   25347.32028090  .00000105  00000+0  19356-3 0  9997", "line2": "2 19071  90.3218  16.5427 0188418 165.1766 207.7212 13.27954073822734"}}, "geometry": {"type": "Point", "coordinates": [14.53719989003787, 80.99325635258792]}}, {"type": "Feature", "properties": {"norad_id": 19223, "name": "NOVA 2", "group": "nnss", "lat": -74.41261578368538, "lon": -101.68301395657721, "alt_km": 1191.9435470222488, "timestamp": "2025-12-14T03:55:53.056181+00:00", "meta": {"OBJECT_NAME": "NOVA 2", "OBJECT_ID": "1988-052A", "EPOCH": "2025-12-13T06:58:55.825824", "MEAN_MOTION": 13.22935915, "ECCENTRICITY": 0.00305458, "INCLINATION": 89.9871, "RA_OF_ASC_NODE": 78.2718, "ARG_OF_PERICENTER": 15.4013, "MEAN_ANOMALY": 44.5186, "EPHEMERIS_TYPE": 0, "CLASSIFICATION_TYPE": "U", "NORAD_CAT_ID": 19223, "ELEMENT_SET_NO": 999, "REV_AT_EPOCH": 80955, "BSTAR": 0.00018175727, "MEAN_MOTION_DOT": 8.5e-07, "MEAN_MOTION_DDOT": 0}, "tle": {"line1": "1 19223U 88052A   25347.29092391  .00000085  00000+0  18176-3 0  9994", "line2": "2 19223  89.9871  78.2718 0030545  15.4013  44.5186 13.22935915809550"}}, "geometry": {"type": "Point", "coordinates": [-101.68301395657721, -74.41261578368538]}}, {"type": "Feature", "properties": {"norad_id": 19419, "name": "OSCAR 25", "group": "nnss", "lat": 71.45538593086785, "lon": 20.145284352820997, "alt_km": 1162.3430636383682, "timestamp": "2025-12-14T03:55:53.056191+00:00", "meta": {"OBJECT_NAME": "OSCAR 25", "OBJECT_ID": "1988-074A", "EPOCH": "2025-12-13T07:57:09.485856", "MEAN_MOTION": 13.42623393, "ECCENTRICITY": 0.0094466, "INCLINATION": 90.0348, "RA_OF_ASC_NODE": 20.2462, "ARG_OF_PERICENTER": 244.1215, "MEAN_ANOMALY": 126.3325, "EPHEMERIS_TYPE": 0, "CLASSIFICATION_TYPE": "U", "NORAD_CAT_ID": 19419, "ELEMENT_SET_NO": 999, "REV_AT_EPOCH": 82648, "BSTAR": 0.000205936, "MEAN_MOTION_DOT": 1.28e-06, "MEAN_MOTION_DDOT": 0}, "tle": {"line1": "1 19419U 88074A   25347.33135979  .00000128  00000+0  20594-3 0  9995", "line2": "2 19419  90.0348  20.2462 0094466 244.1215 126.3325 13.42623393826480"}}, "geometry": {"type": "Point", "coordinates": [20.145284352820997, 71.45538593086785]}}, {"type": "Feature", "properties": {"norad_id": 19420, "name": "OSCAR 31", "group": "nnss", "lat": -43.7956568036581, "lon": 20.634222857445717, "alt_km": 1094.2109907164004, "timestamp": "2025-12-14T03:55:53.056201+00:00", "meta": {"OBJECT_NAME": "OSCAR 31", "OBJECT_ID": "1988-074B", "EPOCH": "2025-12-13T03:24:45.124416", "MEAN_MOTION": 13.42584645, "ECCENTRICITY": 0.00927729, "INCLINATION": 90.0364, "RA_OF_ASC_NODE": 20.5956, "ARG_OF_PERICENTER": 238.7841, "MEAN_ANOMALY": 181.5784, "EPHEMERIS_TYPE": 0, "CLASSIFICATION_TYPE": "U", "NORAD_CAT_ID": 19420, "ELEMENT_SET_NO": 999, "REV_AT_EPOCH": 82656, "BSTAR": 0.00016795931, "MEAN_MOTION_DOT": 1.06e-06, "MEAN_MOTION_DDOT": 0}, "tle": {"line1": "1 19420U 88074B   25347.14218894  .00000106  00000+0  16796-3 0  9999", "line2": "2 19420  90.0364  20.5956 0092772 238.7841 181.5784 13.42584645826560"}}, "geometry": {"type": "Point", "coordinates": [20.634222857445717, -43.7956568036581]}}]}